[{"OBJECT_NAME":"LEMUR-2-DEMBITZ","OBJECT_ID":"2017-042T","EPOCH":"2026-03-09T11:23:53.232288","MEAN_MOTION":15.26947128,"ECCENTRICITY":0.00069617,"INCLINATION":97.3807,"RA_OF_ASC_NODE":250.9241,"ARG_OF_PERICENTER":17.1421,"MEAN_ANOMALY":343.0051,"EPHEMERIS_TYPE":0,"CLASSIFICATION_TYPE":"U","NORAD_CAT_ID":42842,"ELEMENT_SET_NO":999,"REV_AT_EPOCH":47311,"BSTAR":0.00076560825,"MEAN_MOTION_DOT":0.00020231,"MEAN_MOTION_DDOT":0},{"OBJECT_NAME":"STARLINK-36374","OBJECT_ID":"2026-005P","EPOCH":"2026-03-09T11:34:48.874368","MEAN_MOTION":15.27580778,"ECCENTRICITY":6.689e-5,"INCLINATION":42.9945,"RA_OF_ASC_NODE":239.2498,"ARG_OF_PERICENTER":289.971,"MEAN_ANOMALY":70.1069,"EPHEMERIS_TYPE":0,"CLASSIFICATION_TYPE":"U","NORAD_CAT_ID":67417,"ELEMENT_SET_NO":999,"REV_AT_EPOCH":866,"BSTAR":0.0008636409,"MEAN_MOTION_DOT":0.0002358,"MEAN_MOTION_DDOT":0}]
